[{
    "OBJECT_NAME": "FENGYUN 1C DEB",
    "OBJECT_ID": "1999-025AKL",
    "EPOCH": "2023-11-02T20:11:56.882976",
    "MEAN_MOTION": 14.6775576,
    "ECCENTRICITY": 0.0129398,
    "INCLINATION": 98.888,
    "RA_OF_ASC_NODE": 70.809,
    "ARG_OF_PERICENTER": 65.1843,
    "MEAN_ANOMALY": 84.4974,
    "EPHEMERIS_TYPE": 0,
    "CLASSIFICATION_TYPE": "U",
    "NORAD_CAT_ID": 30546,
    "ELEMENT_SET_NO": 999,
    "REV_AT_EPOCH": 89093,
    "BSTAR": 0.001074,
    "MEAN_MOTION_DOT": 6.889e-5,
    "MEAN_MOTION_DDOT": 0
},{
    "OBJECT_NAME": "FENGYUN 1C DEB",
    "OBJECT_ID": "1999-025AKM",
    "EPOCH": "2023-11-02T10:37:53.117760",
    "MEAN_MOTION": 14.35291151,
    "ECCENTRICITY": 0.0098833,
    "INCLINATION": 98.902,
    "RA_OF_ASC_NODE": 111.2973,
    "ARG_OF_PERICENTER": 327.943,
    "MEAN_ANOMALY": 87.2152,
    "EPHEMERIS_TYPE": 0,
    "CLASSIFICATION_TYPE": "U",
    "NORAD_CAT_ID": 30547,
    "ELEMENT_SET_NO": 999,
    "REV_AT_EPOCH": 87648,
    "BSTAR": 0.00035713,
    "MEAN_MOTION_DOT": 1.032e-5,
    "MEAN_MOTION_DDOT": 0
},{
    "OBJECT_NAME": "FENGYUN 1C DEB",
    "OBJECT_ID": "1999-025AKP",
    "EPOCH": "2023-11-02T10:34:57.406080",
    "MEAN_MOTION": 13.89562069,
    "ECCENTRICITY": 0.0316226,
    "INCLINATION": 98.4163,
    "RA_OF_ASC_NODE": 120.082,
    "ARG_OF_PERICENTER": 246.6482,
    "MEAN_ANOMALY": 110.112,
    "EPHEMERIS_TYPE": 0,
    "CLASSIFICATION_TYPE": "U",
    "NORAD_CAT_ID": 30549,
    "ELEMENT_SET_NO": 999,
    "REV_AT_EPOCH": 84545,
    "BSTAR": 0.0030244,
    "MEAN_MOTION_DOT": 5.495e-5,
    "MEAN_MOTION_DDOT": 0
},{
    "OBJECT_NAME": "FENGYUN 1C DEB",
    "OBJECT_ID": "1999-025AKQ",
    "EPOCH": "2023-11-02T04:23:57.327360",
    "MEAN_MOTION": 13.93175684,
    "ECCENTRICITY": 0.0142276,
    "INCLINATION": 99.0854,
    "RA_OF_ASC_NODE": 199.2127,
    "ARG_OF_PERICENTER": 258.9031,
    "MEAN_ANOMALY": 256.6738,
    "EPHEMERIS_TYPE": 0,
    "CLASSIFICATION_TYPE": "U",
    "NORAD_CAT_ID": 30550,
    "ELEMENT_SET_NO": 999,
    "REV_AT_EPOCH": 84615,
    "BSTAR": 0.0034945,
    "MEAN_MOTION_DOT": 4.908e-5,
    "MEAN_MOTION_DDOT": 0
},{
    "OBJECT_NAME": "FENGYUN 1C DEB",
    "OBJECT_ID": "1999-025AKS",
    "EPOCH": "2023-11-02T05:34:58.920960",
    "MEAN_MOTION": 14.29607904,
    "ECCENTRICITY": 0.0016408,
    "INCLINATION": 98.8247,
    "RA_OF_ASC_NODE": 41.7806,
    "ARG_OF_PERICENTER": 23.9004,
    "MEAN_ANOMALY": 336.2935,
    "EPHEMERIS_TYPE": 0,
    "CLASSIFICATION_TYPE": "U",
    "NORAD_CAT_ID": 30552,
    "ELEMENT_SET_NO": 999,
    "REV_AT_EPOCH": 86539,
    "BSTAR": 0.0033232,
    "MEAN_MOTION_DOT": 8.484e-5,
    "MEAN_MOTION_DDOT": 0
},{
    "OBJECT_NAME": "FENGYUN 1C DEB",
    "OBJECT_ID": "1999-025AKT",
    "EPOCH": "2023-11-02T11:48:54.515232",
    "MEAN_MOTION": 14.44634762,
    "ECCENTRICITY": 0.0033692,
    "INCLINATION": 99.1747,
    "RA_OF_ASC_NODE": 315.0687,
    "ARG_OF_PERICENTER": 312.8175,
    "MEAN_ANOMALY": 47.0182,
    "EPHEMERIS_TYPE": 0,
    "CLASSIFICATION_TYPE": "U",
    "NORAD_CAT_ID": 30553,
    "ELEMENT_SET_NO": 999,
    "REV_AT_EPOCH": 87242,
    "BSTAR": 0.0030924,
    "MEAN_MOTION_DOT": 0.00010749,
    "MEAN_MOTION_DDOT": 0
},{
    "OBJECT_NAME": "FENGYUN 1C DEB",
    "OBJECT_ID": "1999-025AKU",
    "EPOCH": "2023-11-02T13:54:19.833408",
    "MEAN_MOTION": 14.72326027,
    "ECCENTRICITY": 0.0026035,
    "INCLINATION": 98.8066,
    "RA_OF_ASC_NODE": 156.9468,
    "ARG_OF_PERICENTER": 276.302,
    "MEAN_ANOMALY": 147.3218,
    "EPHEMERIS_TYPE": 0,
    "CLASSIFICATION_TYPE": "U",
    "NORAD_CAT_ID": 30554,
    "ELEMENT_SET_NO": 999,
    "REV_AT_EPOCH": 87646,
    "BSTAR": 0.0070078,
    "MEAN_MOTION_DOT": 0.00044778,
    "MEAN_MOTION_DDOT": 0
},{
    "OBJECT_NAME": "FENGYUN 1C DEB",
    "OBJECT_ID": "1999-025AKV",
    "EPOCH": "2023-11-02T03:11:51.557568",
    "MEAN_MOTION": 14.14004681,
    "ECCENTRICITY": 0.0045882,
    "INCLINATION": 98.8234,
    "RA_OF_ASC_NODE": 356.9653,
    "ARG_OF_PERICENTER": 321.1349,
    "MEAN_ANOMALY": 93.2921,
    "EPHEMERIS_TYPE": 0,
    "CLASSIFICATION_TYPE": "U",
    "NORAD_CAT_ID": 30555,
    "ELEMENT_SET_NO": 999,
    "REV_AT_EPOCH": 86004,
    "BSTAR": 0.0015371,
    "MEAN_MOTION_DOT": 2.906e-5,
    "MEAN_MOTION_DDOT": 0
},{
    "OBJECT_NAME": "FENGYUN 1C DEB",
    "OBJECT_ID": "1999-025AKW",
    "EPOCH": "2023-11-02T13:36:08.066592",
    "MEAN_MOTION": 13.99679324,
    "ECCENTRICITY": 0.0062426,
    "INCLINATION": 98.7583,
    "RA_OF_ASC_NODE": 320.6542,
    "ARG_OF_PERICENTER": 222.5937,
    "MEAN_ANOMALY": 299.2678,
    "EPHEMERIS_TYPE": 0,
    "CLASSIFICATION_TYPE": "U",
    "NORAD_CAT_ID": 30556,
    "ELEMENT_SET_NO": 999,
    "REV_AT_EPOCH": 85462,
    "BSTAR": 0.00064149,
    "MEAN_MOTION_DOT": 9.12e-6,
    "MEAN_MOTION_DDOT": 0
},{
    "OBJECT_NAME": "FENGYUN 1C DEB",
    "OBJECT_ID": "1999-025AKX",
    "EPOCH": "2023-11-01T16:32:01.366944",
    "MEAN_MOTION": 14.04756964,
    "ECCENTRICITY": 0.0071973,
    "INCLINATION": 98.9722,
    "RA_OF_ASC_NODE": 6.9725,
    "ARG_OF_PERICENTER": 236.4115,
    "MEAN_ANOMALY": 123.0168,
    "EPHEMERIS_TYPE": 0,
    "CLASSIFICATION_TYPE": "U",
    "NORAD_CAT_ID": 30557,
    "ELEMENT_SET_NO": 999,
    "REV_AT_EPOCH": 85437,
    "BSTAR": 0.001955,
    "MEAN_MOTION_DOT": 3.163e-5,
    "MEAN_MOTION_DDOT": 0
},{
    "OBJECT_NAME": "FENGYUN 1C DEB",
    "OBJECT_ID": "1999-025AKY",
    "EPOCH": "2023-10-29T23:48:00.500544",
    "MEAN_MOTION": 13.23609215,
    "ECCENTRICITY": 0.0443761,
    "INCLINATION": 99.4442,
    "RA_OF_ASC_NODE": 139.7916,
    "ARG_OF_PERICENTER": 339.8162,
    "MEAN_ANOMALY": 18.5884,
    "EPHEMERIS_TYPE": 0,
    "CLASSIFICATION_TYPE": "U",
    "NORAD_CAT_ID": 30558,
    "ELEMENT_SET_NO": 999,
    "REV_AT_EPOCH": 80511,
    "BSTAR": 0.0032506,
    "MEAN_MOTION_DOT": 2.29e-5,
    "MEAN_MOTION_DDOT": 0
},{
    "OBJECT_NAME": "FENGYUN 1C DEB",
    "OBJECT_ID": "1999-025ALA",
    "EPOCH": "2023-11-02T14:10:58.963008",
    "MEAN_MOTION": 14.151729,
    "ECCENTRICITY": 0.0117346,
    "INCLINATION": 98.6414,
    "RA_OF_ASC_NODE": 311.2842,
    "ARG_OF_PERICENTER": 264.1266,
    "MEAN_ANOMALY": 220.1937,
    "EPHEMERIS_TYPE": 0,
    "CLASSIFICATION_TYPE": "U",
    "NORAD_CAT_ID": 30560,
    "ELEMENT_SET_NO": 999,
    "REV_AT_EPOCH": 86454,
    "BSTAR": 0.00042563,
    "MEAN_MOTION_DOT": 8.4e-6,
    "MEAN_MOTION_DDOT": 0
},{
    "OBJECT_NAME": "FENGYUN 1C DEB",
    "OBJECT_ID": "1999-025ALB",
    "EPOCH": "2023-11-02T07:09:34.452288",
    "MEAN_MOTION": 14.09620551,
    "ECCENTRICITY": 0.0061917,
    "INCLINATION": 98.7376,
    "RA_OF_ASC_NODE": 319.8152,
    "ARG_OF_PERICENTER": 140.4376,
    "MEAN_ANOMALY": 234.012,
    "EPHEMERIS_TYPE": 0,
    "CLASSIFICATION_TYPE": "U",
    "NORAD_CAT_ID": 30561,
    "ELEMENT_SET_NO": 999,
    "REV_AT_EPOCH": 86103,
    "BSTAR": 0.00036743,
    "MEAN_MOTION_DOT": 6.13e-6,
    "MEAN_MOTION_DDOT": 0
},{
    "OBJECT_NAME": "FENGYUN 1C DEB",
    "OBJECT_ID": "1999-025ALC",
    "EPOCH": "2023-11-02T10:31:27.251904",
    "MEAN_MOTION": 14.1497818,
    "ECCENTRICITY": 0.006397,
    "INCLINATION": 98.8184,
    "RA_OF_ASC_NODE": 9.4197,
    "ARG_OF_PERICENTER": 319.7893,
    "MEAN_ANOMALY": 52.7802,
    "EPHEMERIS_TYPE": 0,
    "CLASSIFICATION_TYPE": "U",
    "NORAD_CAT_ID": 30562,
    "ELEMENT_SET_NO": 999,
    "REV_AT_EPOCH": 86060,
    "BSTAR": 0.0018338,
    "MEAN_MOTION_DOT": 3.575e-5,
    "MEAN_MOTION_DDOT": 0
},{
    "OBJECT_NAME": "FENGYUN 1C DEB",
    "OBJECT_ID": "1999-025ALE",
    "EPOCH": "2023-11-02T20:41:45.419136",
    "MEAN_MOTION": 14.02055435,
    "ECCENTRICITY": 0.0212899,
    "INCLINATION": 98.8468,
    "RA_OF_ASC_NODE": 329.8849,
    "ARG_OF_PERICENTER": 116.5833,
    "MEAN_ANOMALY": 58.6939,
    "EPHEMERIS_TYPE": 0,
    "CLASSIFICATION_TYPE": "U",
    "NORAD_CAT_ID": 30564,
    "ELEMENT_SET_NO": 999,
    "REV_AT_EPOCH": 85502,
    "BSTAR": 0.00067665,
    "MEAN_MOTION_DOT": 1.219e-5,
    "MEAN_MOTION_DDOT": 0
},{
    "OBJECT_NAME": "FENGYUN 1C DEB",
    "OBJECT_ID": "1999-025ALF",
    "EPOCH": "2023-11-02T17:13:09.909120",
    "MEAN_MOTION": 14.01141167,
    "ECCENTRICITY": 0.0160235,
    "INCLINATION": 98.4853,
    "RA_OF_ASC_NODE": 215.2162,
    "ARG_OF_PERICENTER": 22.1955,
    "MEAN_ANOMALY": 31.9747,
    "EPHEMERIS_TYPE": 0,
    "CLASSIFICATION_TYPE": "U",
    "NORAD_CAT_ID": 30565,
    "ELEMENT_SET_NO": 999,
    "REV_AT_EPOCH": 85107,
    "BSTAR": 0.0030745,
    "MEAN_MOTION_DOT": 5.125e-5,
    "MEAN_MOTION_DDOT": 0
},{
    "OBJECT_NAME": "FENGYUN 1C DEB",
    "OBJECT_ID": "1999-025ALG",
    "EPOCH": "2023-11-02T12:46:10.373664",
    "MEAN_MOTION": 14.0578658,
    "ECCENTRICITY": 0.0072827,
    "INCLINATION": 99.2742,
    "RA_OF_ASC_NODE": 324.504,
    "ARG_OF_PERICENTER": 168.7751,
    "MEAN_ANOMALY": 345.0745,
    "EPHEMERIS_TYPE": 0,
    "CLASSIFICATION_TYPE": "U",
    "NORAD_CAT_ID": 30566,
    "ELEMENT_SET_NO": 999,
    "REV_AT_EPOCH": 85523,
    "BSTAR": 0.0015583,
    "MEAN_MOTION_DOT": 2.56e-5,
    "MEAN_MOTION_DDOT": 0
},{
    "OBJECT_NAME": "FENGYUN 1C DEB",
    "OBJECT_ID": "1999-025ALH",
    "EPOCH": "2023-11-02T20:10:56.079840",
    "MEAN_MOTION": 14.07305379,
    "ECCENTRICITY": 0.0110754,
    "INCLINATION": 98.7429,
    "RA_OF_ASC_NODE": 309.2901,
    "ARG_OF_PERICENTER": 204.6884,
    "MEAN_ANOMALY": 282.3083,
    "EPHEMERIS_TYPE": 0,
    "CLASSIFICATION_TYPE": "U",
    "NORAD_CAT_ID": 30567,
    "ELEMENT_SET_NO": 999,
    "REV_AT_EPOCH": 85928,
    "BSTAR": 0.00036372,
    "MEAN_MOTION_DOT": 6.03e-6,
    "MEAN_MOTION_DDOT": 0
},{
    "OBJECT_NAME": "FENGYUN 1C DEB",
    "OBJECT_ID": "1999-025ALJ",
    "EPOCH": "2023-11-02T14:59:52.005408",
    "MEAN_MOTION": 14.29592754,
    "ECCENTRICITY": 0.0020608,
    "INCLINATION": 98.9329,
    "RA_OF_ASC_NODE": 70.1599,
    "ARG_OF_PERICENTER": 304.1078,
    "MEAN_ANOMALY": 68.2033,
    "EPHEMERIS_TYPE": 0,
    "CLASSIFICATION_TYPE": "U",
    "NORAD_CAT_ID": 30568,
    "ELEMENT_SET_NO": 999,
    "REV_AT_EPOCH": 86548,
    "BSTAR": 0.0035731,
    "MEAN_MOTION_DOT": 9.13e-5,
    "MEAN_MOTION_DDOT": 0
}]